[{"OBJECT_NAME":"KUIPER-00086","OBJECT_ID":"2025-151S","EPOCH":"2026-03-09T22:21:28.401408","MEAN_MOTION":14.79911303,"ECCENTRICITY":8.911e-5,"INCLINATION":51.9007,"RA_OF_ASC_NODE":297.0258,"ARG_OF_PERICENTER":68.1142,"MEAN_ANOMALY":291.9915,"EPHEMERIS_TYPE":0,"CLASSIFICATION_TYPE":"U","NORAD_CAT_ID":64832,"ELEMENT_SET_NO":999,"REV_AT_EPOCH":3537,"BSTAR":-0.00040584564,"MEAN_MOTION_DOT":-3.312e-5,"MEAN_MOTION_DDOT":0},{"OBJECT_NAME":"CZ-6A DEB","OBJECT_ID":"2022-151MD","EPOCH":"2026-03-09T01:09:00.063360","MEAN_MOTION":14.67742305,"ECCENTRICITY":0.0063173,"INCLINATION":98.4594,"RA_OF_ASC_NODE":100.6325,"ARG_OF_PERICENTER":213.1867,"MEAN_ANOMALY":146.5367,"EPHEMERIS_TYPE":0,"CLASSIFICATION_TYPE":"U","NORAD_CAT_ID":54577,"ELEMENT_SET_NO":999,"REV_AT_EPOCH":17495,"BSTAR":0.0026316145,"MEAN_MOTION_DOT":0.00015427,"MEAN_MOTION_DDOT":0}]
